H1 CPF 01  gfz 2022 10 08 00  7811 tandemx   
H2 1003001  6202 36605    2022 10 08 00 59 42 2022 10 13 00 00 42   120 1 1  0 0 0
H9
10 0 59860  53262.000000  0   -2395371.159  -3741028.491   5255068.305
10 0 59860  53382.000000  0   -2932613.226  -4158539.090   4633768.168
10 0 59860  53502.000000  0   -3425199.585  -4494367.549   3930916.765
10 0 59860  53622.000000  0   -3863031.074  -4743491.163   3158862.435
10 0 59860  53742.000000  0   -4236894.266  -4902576.520   2331184.768
10 0 59860  53862.000000  0   -4538657.857  -4970026.483   1462454.275
10 0 59860  53982.000000  0   -4761450.581  -4945991.614    567970.789
10 0 59860  54102.000000  0   -4899815.534  -4832345.945   -336512.989
10 0 59860  54222.000000  0   -4949837.350  -4632627.831  -1235077.651
10 0 59860  54342.000000  0   -4909237.950  -4351946.647  -2111927.117
10 0 59860  54462.000000  0   -4777437.952  -3996857.265  -2951674.589
10 0 59860  54582.000000  0   -4555583.160  -3575207.074  -3739616.989
10 0 59860  54702.000000  0   -4246536.860  -3095960.773  -4461993.345
10 0 59860  54822.000000  0   -3854838.408  -2569006.700  -5106222.865
10 0 59860  54942.000000  0   -3386629.357  -2004949.710  -5661117.894
10 0 59860  55062.000000  0   -2849550.154  -1414895.963  -6117069.146
10 0 59860  55182.000000  0   -2252609.806   -810233.730  -6466201.652
10 0 59860  55302.000000  0   -1606030.345   -202414.954  -6702499.255
10 0 59860  55422.000000  0    -921070.775    397257.834  -6821896.153
10 0 59860  55542.000000  0    -209834.373    977835.932  -6822338.893
10 0 59860  55662.000000  0     514940.193   1528919.271  -6703817.634
10 0 59860  55782.000000  0    1240100.342   2040837.362  -6468368.051
10 0 59860  55902.000000  0    1952313.795   2504816.568  -6120041.105
10 0 59860  56022.000000  0    2638309.041   2913129.519  -5664840.768
10 0 59860  56142.000000  0    3285119.491   3259224.126  -5110629.616
10 0 59860  56262.000000  0    3880327.251   3537831.344  -4467005.370
10 0 59860  56382.000000  0    4412304.319   3745049.898  -3745145.938
10 0 59860  56502.000000  0    4870445.121   3878404.675  -2957624.083
10 0 59860  56622.000000  0    5245383.755   3936877.176  -2118193.881
10 0 59860  56742.000000  0    5529191.943   3920907.904  -1241553.093
10 0 59860  56862.000000  0    5715552.467   3832368.652   -343084.121
10 0 59860  56982.000000  0    5799902.923   3674505.795    561420.052
10 0 59860  57102.000000  0    5779546.568   3451855.112   1456040.635
10 0 59860  57222.000000  0    5653725.324   3170129.524   2325022.046
10 0 59860  57342.000000  0    5423653.643   2836083.884   3153058.094
10 0 59860  57462.000000  0    5092512.119   2457359.336   3925570.047
10 0 59860  57582.000000  0    4665399.813   2042310.722   4628968.805
10 0 59860  57702.000000  0    4149249.985   1599823.231   5250894.167
10 0 59860  57822.000000  0    3552711.415   1139122.791   5780433.560
10 0 59860  57942.000000  0    2885993.051    669582.691   6208310.156
10 0 59860  58062.000000  0    2160682.152    200533.017   6527037.571
10 0 59860  58182.000000  0    1389539.606   -258922.971   6731044.866
10 0 59860  58302.000000  0     586272.776   -700084.735   6816770.215
10 0 59860  58422.000000  0    -234710.314  -1114818.832   6782718.698
10 0 59860  58542.000000  0   -1058559.315  -1495708.263   6629486.005
10 0 59860  58662.000000  0   -1870249.339  -1836185.292   6359747.417
10 0 59860  58782.000000  0   -2654852.755  -2130643.995   5978213.270
10 0 59860  58902.000000  0   -3397813.193  -2374533.129   5491554.596
10 0 59860  59022.000000  0   -4085220.677  -2564428.912   4908293.533
10 0 59860  59142.000000  0   -4704077.262  -2698083.822   4238658.254
10 0 59860  59262.000000  0   -5242548.999  -2774450.323   3494407.055
10 0 59860  59382.000000  0   -5690199.205  -2793679.351   2688624.557
10 0 59860  59502.000000  0   -6038199.190  -2757094.479   1835492.271
10 0 59860  59622.000000  0   -6279510.770  -2667142.280    950035.125
10 0 59860  59742.000000  0   -6409033.281  -2527317.196     47849.297
10 0 59860  59862.000000  0   -6423712.976  -2342064.588   -855180.129
10 0 59860  59982.000000  0   -6322611.381  -2116663.984  -1743169.042
10 0 59860  60102.000000  0   -6106928.941  -1857095.797  -2600522.218
10 0 59860  60222.000000  0   -5779986.308  -1569895.383  -3412212.869
10 0 59860  60342.000000  0   -5347163.976  -1261998.143  -4164048.870
10 0 59860  60462.000000  0   -4815802.424   -940579.845  -4842920.214
10 0 59860  60582.000000  0   -4195065.782   -612895.532  -5437023.662
10 0 59860  60702.000000  0   -3495772.044   -286121.389  -5936060.108
10 0 59860  60822.000000  0   -2730195.665     32797.147  -6331402.108
10 0 59860  60942.000000  0   -1911847.307    337287.546  -6616230.959
10 0 59860  61062.000000  0   -1055233.913    621279.729  -6785643.133
10 0 59860  61182.000000  0    -175604.372    879322.404  -6836725.134
10 0 59860  61302.000000  0     711315.484   1106684.344  -6768597.022
10 0 59860  61422.000000  0    1589596.157   1299437.912  -6582428.115
10 0 59860  61542.000000  0    2443385.201   1454526.271  -6281420.266
10 0 59860  61662.000000  0    3257188.409   1569811.627  -5870758.367
10 0 59860  61782.000000  0    4016147.228   1644103.511  -5357528.955
10 0 59860  61902.000000  0    4706309.337   1677167.621  -4750609.899
10 0 59860  62022.000000  0    5314889.708   1669715.016  -4060528.301
10 0 59860  62142.000000  0    5830514.334   1623370.769  -3299287.300
10 0 59860  62262.000000  0    6243442.203   1540622.702  -2480165.479
10 0 59860  62382.000000  0    6545761.782   1424751.466  -1617489.985
10 0 59860  62502.000000  0    6731554.674   1279742.790   -726385.589
10 0 59860  62622.000000  0    6797021.725   1110183.140    177494.385
10 0 59860  62742.000000  0    6740566.513    921142.444   1078249.574
10 0 59860  62862.000000  0    6562837.264    718046.507   1960019.255
10 0 59860  62982.000000  0    6266723.227    506540.966   2807271.937
10 0 59860  63102.000000  0    5857304.078    292351.631   3605086.902
10 0 59860  63222.000000  0    5341756.104     81144.347   4339423.759
10 0 59860  63342.000000  0    4729217.210   -121610.407   4997371.817
10 0 59860  63462.000000  0    4030615.632   -310767.578   5567378.905
10 0 59860  63582.000000  0    3258463.633   -481627.777   6039451.179
10 0 59860  63702.000000  0    2426625.323   -630043.897   6405323.156
10 0 59860  63822.000000  0    1550062.217   -752514.076   6658596.681
10 0 59860  63942.000000  0     644560.109   -846258.674   6794848.164
10 0 59860  64062.000000  0    -273557.970   -909279.649   6811700.366
10 0 59860  64182.000000  0   -1187725.694   -940401.615   6708860.082
10 0 59860  64302.000000  0   -2081431.088   -939293.770   6488122.300
10 0 59860  64422.000000  0   -2938513.003   -906471.944   6153340.480
10 0 59860  64542.000000  0   -3743453.210   -843281.097   5710365.060
10 0 59860  64662.000000  0   -4481661.221   -751859.210   5166948.152
10 0 59860  64782.000000  0   -5139745.327   -635082.874   4532613.829
10 0 59860  64902.000000  0   -5705763.484   -496494.998   3818495.346
10 0 59860  65022.000000  0   -6169448.589   -340216.303   3037142.174
10 0 59860  65142.000000  0   -6522404.294   -170842.396   2202301.172
10 0 59860  65262.000000  0   -6758267.871      6671.820   1328672.623
10 0 59860  65382.000000  0   -6872833.082    187136.551    431645.358
10 0 59860  65502.000000  0   -6864129.995    365257.681   -472982.464
10 0 59860  65622.000000  0   -6732459.275    535770.666  -1369290.964
10 0 59860  65742.000000  0   -6480379.849    693573.492  -2241526.841
10 0 59860  65862.000000  0   -6112653.894    833855.586  -3074386.384
10 0 59860  65982.000000  0   -5636147.283    952220.004  -3853290.960
10 0 59860  66102.000000  0   -5059687.393   1044795.066  -4564643.066
10 0 59860  66222.000000  0   -4393886.545   1108332.998  -5196060.453
10 0 59860  66342.000000  0   -3650934.655   1140293.402  -5736584.450
10 0 59860  66462.000000  0   -2844367.202   1138909.901  -6176860.282
10 0 59860  66582.000000  0   -1988813.340   1103238.456  -6509287.429
10 0 59860  66702.000000  0   -1099728.808   1033188.607  -6728139.661
10 0 59860  66822.000000  0    -193118.696    929535.464  -6829652.234
10 0 59860  66942.000000  0     714743.770    793913.081  -6812078.699
10 0 59860  67062.000000  0    1607601.401    628789.282  -6675720.046
10 0 59860  67182.000000  0    2469498.774    437421.807  -6422920.685
10 0 59860  67302.000000  0    3285061.567    223797.049  -6058032.358
10 0 59860  67422.000000  0    4039767.520     -7448.343  -5587346.378
10 0 59860  67542.000000  0    4720203.467   -251122.236  -5018995.521
10 0 59860  67662.000000  0    5314307.939   -501585.780  -4362826.092
10 0 59860  67782.000000  0    5811592.802   -752875.399  -3630237.455
10 0 59860  67902.000000  0    6203338.358   -998835.261  -2833992.763
10 0 59860  68022.000000  0    6482758.409  -1233258.055  -1988002.601
10 0 59860  68142.000000  0    6645130.725  -1450030.260  -1107083.842
10 0 59860  68262.000000  0    6687888.024  -1643278.425   -206698.247
10 0 59860  68382.000000  0    6610667.450  -1807513.028    697323.653
10 0 59860  68502.000000  0    6415315.911  -1937766.202   1589069.075
10 0 59860  68622.000000  0    6105850.236  -2029719.560   2452831.815
10 0 59860  68742.000000  0    5688373.859  -2079818.671   3273398.303
10 0 59860  68862.000000  0    5170950.683  -2085370.701   4036322.937
10 0 59860  68982.000000  0    4563441.093  -2044623.660   4728186.261
10 0 59860  69102.000000  0    3877306.230  -1956824.483   5336832.240
10 0 59860  69222.000000  0    3125383.120  -1822256.093   5851582.198
10 0 59860  69342.000000  0    2321635.253  -1642251.754   6263418.057
10 0 59860  69462.000000  0    1480887.521  -1419187.164   6565134.434
10 0 59860  69582.000000  0     618548.567  -1156450.603   6751459.096
10 0 59860  69702.000000  0    -249673.939   -858390.823   6819139.366
99
